OBJECT_NAME,OBJECT_ID,EPOCH,MEAN_MOTION,ECCENTRICITY,INCLINATION,RA_OF_ASC_NODE,ARG_OF_PERICENTER,MEAN_ANOMALY,EPHEMERIS_TYPE,CLASSIFICATION_TYPE,NORAD_CAT_ID,ELEMENT_SET_NO,REV_AT_EPOCH,BSTAR,MEAN_MOTION_DOT,MEAN_MOTION_DDOT
ONEWEB-0667,2023-029AH,2026-07-15T05:01:10.720704,13.20773436,.00019973,87.9195,268.8478,103.9973,256.1382,0,U,55827,999,16484,.13530213E-3,.68E-6,0
ONEWEB-0669,2023-029AJ,2026-07-15T04:53:54.300480,13.20770108,.0001668,87.9188,268.8583,87.2317,272.9007,0,U,55828,999,16484,.58023981E-4,.37E-6,0
ONEWEB-0670,2023-029AK,2026-07-15T07:11:39.415200,13.14501865,.00016517,87.8956,284.1370,106.5471,253.5840,0,U,55829,999,16312,.40703108E-3,.164E-5,0
ONEWEB-0671,2023-029AL,2026-07-15T08:14:09.478464,13.19725710,.00019385,87.9187,299.3690,105.0003,255.1344,0,U,55830,999,16261,-.92916625E-4,-.24E-6,0
ONEWEB-0672,2023-029AM,2026-07-15T04:46:38.789184,13.20770239,.00020839,87.9187,268.8530,92.7587,267.3785,0,U,55831,999,16484,.78984798E-4,.45E-6,0
ONEWEB-0673,2023-029AN,2026-07-15T07:41:10.613472,13.19725293,.00019358,87.9194,299.3672,104.3693,255.7655,0,U,55832,999,16261,.15011893E-3,.73E-6,0
ONEWEB-0674,2023-029AP,2026-07-15T06:25:58.056384,13.14501461,.00016277,87.8964,284.1203,104.5388,255.5922,0,U,55833,999,16310,-.43500201E-3,-.148E-5,0
ONEWEB-0675,2023-029AQ,2026-07-15T08:02:47.755680,13.19723612,.00022583,87.9187,299.3721,96.9078,263.2312,0,U,55834,999,16263,-.47076625E-4,-.6E-7,0
ONEWEB-0720,2023-029AR,2026-07-15T07:51:25.116192,13.19725781,.0002145,87.9183,299.3731,107.8205,252.3162,0,U,55835,999,16255,.2935334E-3,.13E-5,0
ONEWEB-0537,2023-043A,2026-07-15T12:59:42.954432,13.16594441,.00021577,87.9079,223.1390,88.8577,271.2801,0,U,56046,999,16269,.19288177E-3,.87E-6,0
ONEWEB-0538,2023-043B,2026-07-15T12:50:35.520576,13.16594345,.00023112,87.9080,223.1430,94.5514,265.5881,0,U,56047,999,16270,.41624604E-3,.172E-5,0
ONEWEB-0546,2023-043C,2026-07-15T10:42:55.092672,13.16593707,.00022605,87.9082,223.1608,79.9839,280.1547,0,U,56048,999,16268,.92926299E-4,.48E-6,0
ONEWEB-0547,2023-043D,2026-07-15T11:35:20.463936,13.21827267,.00022304,87.9240,238.3435,101.0117,259.1268,0,U,56049,999,16196,.85083503E-4,.48E-6,0
ONEWEB-0548,2023-043E,2026-07-15T13:07:40.640160,13.16595121,.00015956,87.9078,223.1363,91.3763,268.7551,0,U,56050,999,16269,-.57449738E-4,-.9E-7,0
ONEWEB-0549,2023-043F,2026-07-15T11:26:52.219392,13.21827231,.00024751,87.9232,238.3500,97.7033,262.4382,0,U,56051,999,16196,.77891813E-4,.45E-6,0
ONEWEB-0550,2023-043G,2026-07-15T12:56:30.626304,13.21827068,.00018816,87.9235,238.3356,98.4361,261.6986,0,U,56052,999,16197,.21876221E-3,.103E-5,0
ONEWEB-0551,2023-043H,2026-07-15T12:35:27.642336,13.15546067,.0002398,87.8981,253.5803,102.4558,257.6841,0,U,56053,999,16012,-.13029103E-3,-.36E-6,0
ONEWEB-0552,2023-043J,2026-07-15T12:49:13.507104,13.21826332,.0002094,87.9231,238.3415,101.8460,258.2909,0,U,56054,999,16197,.10010291E-3,.54E-6,0
ONEWEB-0553,2023-043K,2026-07-15T12:41:28.346784,13.16594178,.000205,87.9080,223.1443,81.8991,278.2373,0,U,56055,999,16270,.1519367E-3,.71E-6,0
ONEWEB-0554,2023-043L,2026-07-15T12:23:14.163360,13.16594468,.00015207,87.9075,223.1559,94.2409,265.8896,0,U,56056,999,16268,.26929279E-3,.116E-5,0
ONEWEB-0555,2023-043M,2026-07-15T11:28:30.507168,13.16593989,.00021838,87.9081,223.1521,77.9450,282.1926,0,U,56057,999,16268,-.44788374E-4,-.4E-7,0
ONEWEB-0557,2023-043N,2026-07-15T11:49:01.690752,13.16593773,.00012848,87.9079,223.1591,57.0054,303.1200,0,U,56058,999,16268,-.22735236E-4,.4E-7,0
ONEWEB-0558,2023-043P,2026-07-15T12:39:32.766048,13.21826032,.00024226,87.9235,238.3384,95.2263,264.9148,0,U,56059,999,16198,.11993742E-3,.63E-6,0
ONEWEB-0559,2023-043Q,2026-07-15T12:22:35.400000,13.21824092,.00022338,87.9236,238.3363,100.4972,259.6414,0,U,56060,999,16199,.1187429E-3,.62E-6,0
ONEWEB-0566,2023-043R,2026-07-15T12:12:54.100800,13.21824358,.00023274,87.9237,238.3353,102.5758,257.5636,0,U,56061,999,16197,.21503815E-3,.102E-5,0
ONEWEB-0568,2023-043S,2026-07-15T12:14:06.454752,13.16595728,.00021194,87.9078,223.1451,85.9150,274.2223,0,U,56062,999,16270,.928602E-4,.48E-6,0
ONEWEB-0574,2023-043T,2026-07-15T12:03:13.917024,13.21825520,.00018893,87.9241,238.3415,94.5608,265.5742,0,U,56063,999,16201,-.35128008E-4,-.1E-7,0
ONEWEB-0575,2023-043U,2026-07-15T12:04:58.841184,13.16595560,.00017654,87.9076,223.1427,84.4510,275.6823,0,U,56064,999,16269,-.66745256E-4,-.13E-6,0
ONEWEB-0576,2023-043V,2026-07-15T11:37:36.772896,13.16595497,.00018851,87.9083,223.1550,88.6301,271.5045,0,U,56065,999,16268,-.94562491E-4,-.23E-6,0
ONEWEB-0577,2023-043W,2026-07-15T11:46:44.683680,13.16595482,.00013342,87.9081,223.1514,82.7479,277.3804,0,U,56066,999,16271,.33811248E-4,.26E-6,0
