ONEWEB-0667             
1 55827U 23029AH  26196.20915186  .00000068  00000+0  13530-3 0  9997
2 55827  87.9195 268.8478 0001997 103.9973 256.1382 13.20773436164845
ONEWEB-0669             
1 55828U 23029AJ  26196.20410070  .00000037  00000+0  58024-4 0  9994
2 55828  87.9188 268.8583 0001668  87.2317 272.9007 13.20770108164849
ONEWEB-0670             
1 55829U 23029AK  26196.29976175  .00000164  00000+0  40703-3 0  9992
2 55829  87.8956 284.1370 0001651 106.5471 253.5840 13.14501865163120
ONEWEB-0671             
1 55830U 23029AL  26196.34316526 -.00000024  00000+0 -92917-4 0  9990
2 55830  87.9187 299.3690 0001938 105.0003 255.1344 13.19725710162617
ONEWEB-0672             
1 55831U 23029AM  26196.19906006  .00000045  00000+0  78985-4 0  9992
2 55831  87.9187 268.8530 0002083  92.7587 267.3785 13.20770239164842
ONEWEB-0673             
1 55832U 23029AN  26196.32026173  .00000073  00000+0  15012-3 0  9998
2 55832  87.9194 299.3672 0001935 104.3693 255.7655 13.19725293162618
ONEWEB-0674             
1 55833U 23029AP  26196.26803306 -.00000148  00000+0 -43500-3 0  9991
2 55833  87.8964 284.1203 0001627 104.5388 255.5922 13.14501461163100
ONEWEB-0675             
1 55834U 23029AQ  26196.33527495 -.00000006  00000+0 -47077-4 0  9999
2 55834  87.9187 299.3721 0002258  96.9078 263.2312 13.19723612162638
ONEWEB-0720             
1 55835U 23029AR  26196.32737403  .00000130  00000+0  29353-3 0  9993
2 55835  87.9183 299.3731 0002145 107.8205 252.3162 13.19725781162557
ONEWEB-0537             
1 56046U 23043A   26196.54146938  .00000087  00000+0  19288-3 0  9992
2 56046  87.9079 223.1390 0002157  88.8577 271.2801 13.16594441162694
ONEWEB-0538             
1 56047U 23043B   26196.53513334  .00000172  00000+0  41625-3 0  9995
2 56047  87.9080 223.1430 0002311  94.5514 265.5881 13.16594345162708
ONEWEB-0546             
1 56048U 23043C   26196.44647098  .00000048  00000+0  92926-4 0  9994
2 56048  87.9082 223.1608 0002260  79.9839 280.1547 13.16593707162688
ONEWEB-0547             
1 56049U 23043D   26196.48287574  .00000048  00000+0  85084-4 0  9995
2 56049  87.9240 238.3435 0002230 101.0117 259.1268 13.21827267161967
ONEWEB-0548             
1 56050U 23043E   26196.54699815 -.00000009  00000+0 -57450-4 0  9994
2 56050  87.9078 223.1363 0001595  91.3763 268.7551 13.16595121162698
ONEWEB-0549             
1 56051U 23043F   26196.47699328  .00000045  00000+0  77892-4 0  9996
2 56051  87.9232 238.3500 0002475  97.7033 262.4382 13.21827231161968
ONEWEB-0550             
1 56052U 23043G   26196.53924336  .00000103  00000+0  21876-3 0  9999
2 56052  87.9235 238.3356 0001881  98.4361 261.6986 13.21827068161973
ONEWEB-0551             
1 56053U 23043H   26196.52462549 -.00000036  00000+0 -13029-3 0  9990
2 56053  87.8981 253.5803 0002398 102.4558 257.6841 13.15546067160126
ONEWEB-0552             
1 56054U 23043J   26196.53418411  .00000054  00000+0  10010-3 0  9996
2 56054  87.9231 238.3415 0002094 101.8460 258.2909 13.21826332161973
ONEWEB-0553             
1 56055U 23043K   26196.52880031  .00000071  00000+0  15194-3 0  9994
2 56055  87.9080 223.1443 0002050  81.8991 278.2373 13.16594178162700
ONEWEB-0554             
1 56056U 23043L   26196.51613615  .00000116  00000+0  26929-3 0  9994
2 56056  87.9075 223.1559 0001520  94.2409 265.8896 13.16594468162687
ONEWEB-0555             
1 56057U 23043M   26196.47813087 -.00000004  00000+0 -44788-4 0  9997
2 56057  87.9081 223.1521 0002183  77.9450 282.1926 13.16593989162687
ONEWEB-0557             
1 56058U 23043N   26196.49238068  .00000004  00000+0 -22735-4 0  9997
2 56058  87.9079 223.1591 0001284  57.0054 303.1200 13.16593773162682
ONEWEB-0558             
1 56059U 23043P   26196.52746257  .00000063  00000+0  11994-3 0  9994
2 56059  87.9235 238.3384 0002422  95.2263 264.9148 13.21826032161986
ONEWEB-0559             
1 56060U 23043Q   26196.51568750  .00000062  00000+0  11874-3 0  9991
2 56060  87.9236 238.3363 0002233 100.4972 259.6414 13.21824092161994
ONEWEB-0566             
1 56061U 23043R   26196.50895950  .00000102  00000+0  21504-3 0  9992
2 56061  87.9237 238.3353 0002327 102.5758 257.5636 13.21824358161970
ONEWEB-0568             
1 56062U 23043S   26196.50979693  .00000048  00000+0  92860-4 0  9993
2 56062  87.9078 223.1451 0002119  85.9150 274.2223 13.16595728162704
ONEWEB-0574             
1 56063U 23043T   26196.50224441 -.00000001  00000+0 -35128-4 0  9993
2 56063  87.9241 238.3415 0001889  94.5608 265.5742 13.21825520162017
ONEWEB-0575             
1 56064U 23043U   26196.50345881 -.00000013  00000+0 -66745-4 0  9998
2 56064  87.9076 223.1427 0001765  84.4510 275.6823 13.16595560162690
ONEWEB-0576             
1 56065U 23043V   26196.48445339 -.00000023  00000+0 -94562-4 0  9994
2 56065  87.9083 223.1550 0001885  88.6301 271.5045 13.16595497162682
ONEWEB-0577             
1 56066U 23043W   26196.49079495  .00000026  00000+0  33811-4 0  9993
2 56066  87.9081 223.1514 0001334  82.7479 277.3804 13.16595482162716
